{
  "type": "FeatureCollection",
  "features": [
    {
      "type": "Feature",
      "properties": {
        "norad_id": 38494,
        "name": "FENGYUN 1C DEB",
        "group": "fengyun-1c-debris",
        "lat": -2.710070455549842,
        "lon": -68.67056307090716,
        "alt_km": 651.5483020960255,
        "timestamp": "2025-12-06T05:40:09.534221+00:00",
        "meta_object_name": "FENGYUN 1C DEB",
        "meta_object_id": "1999-025ESD",
        "meta_epoch": "2025-12-04T02:13:11.134272",
        "meta_mean_motion": 13.99763364,
        "meta_eccentricity": 0.03867998,
        "meta_inclination": 98.4342,
        "meta_ra_of_asc_node": 288.9449,
        "meta_arg_of_pericenter": 33.497,
        "meta_mean_anomaly": 329.0026,
        "meta_ephemeris_type": 0,
        "meta_classification_type": "U",
        "meta_norad_cat_id": 38494,
        "meta_element_set_no": 999,
        "meta_rev_at_epoch": 7033,
        "meta_bstar": 0.010812505,
        "meta_mean_motion_dot": 0.00030392,
        "meta_mean_motion_ddot": 0,
        "tle_line1": "1 38494U 99025ESD 25338.09248998  .00030392  00000+0  10813-1 0  9993",
        "tle_line2": "2 38494  98.4342 288.9449 0386799  33.4970 329.0026 13.99763364 70338"
      },
      "geometry": {
        "type": "Point",
        "coordinates": [
          -68.67056307090716,
          -2.710070455549842
        ]
      }
    },
    {
      "type": "Feature",
      "properties": {
        "norad_id": 38495,
        "name": "FENGYUN 1C DEB",
        "group": "fengyun-1c-debris",
        "lat": 53.34278925380549,
        "lon": -170.5767872657158,
        "alt_km": 834.9421711008845,
        "timestamp": "2025-12-06T05:40:09.534232+00:00",
        "meta_object_name": "FENGYUN 1C DEB",
        "meta_object_id": "1999-025ESE",
        "meta_epoch": "2025-12-02T06:20:41.771904",
        "meta_mean_motion": 13.69106573,
        "meta_eccentricity": 0.0252581,
        "meta_inclination": 99.1709,
        "meta_ra_of_asc_node": 353.1036,
        "meta_arg_of_pericenter": 165.9119,
        "meta_mean_anomaly": 194.9245,
        "meta_ephemeris_type": 0,
        "meta_classification_type": "U",
        "meta_norad_cat_id": 38495,
        "meta_element_set_no": 999,
        "meta_rev_at_epoch": 60969,
        "meta_bstar": 0.0025866,
        "meta_mean_motion_dot": 2.759e-05,
        "meta_mean_motion_ddot": 0,
        "tle_line1": "1 38495U 99025ESE 25336.26437236  .00002759  00000+0  25866-2 0  9997",
        "tle_line2": "2 38495  99.1709 353.1036 0252581 165.9119 194.9245 13.69106573609697"
      },
      "geometry": {
        "type": "Point",
        "coordinates": [
          -170.5767872657158,
          53.34278925380549
        ]
      }
    },
    {
      "type": "Feature",
      "properties": {
        "norad_id": 38496,
        "name": "FENGYUN 1C DEB",
        "group": "fengyun-1c-debris",
        "lat": 15.17476147286587,
        "lon": -12.264829484414525,
        "alt_km": 805.1278597195515,
        "timestamp": "2025-12-06T05:40:09.534243+00:00",
        "meta_object_name": "FENGYUN 1C DEB",
        "meta_object_id": "1999-025ESF",
        "meta_epoch": "2025-12-02T19:50:53.821248",
        "meta_mean_motion": 14.09951283,
        "meta_eccentricity": 0.00773026,
        "meta_inclination": 98.7623,
        "meta_ra_of_asc_node": 346.8127,
        "meta_arg_of_pericenter": 35.254,
        "meta_mean_anomaly": 325.371,
        "meta_ephemeris_type": 0,
        "meta_classification_type": "U",
        "meta_norad_cat_id": 38496,
        "meta_element_set_no": 999,
        "meta_rev_at_epoch": 80881,
        "meta_bstar": 0.0012363442,
        "meta_mean_motion_dot": 2.198e-05,
        "meta_mean_motion_ddot": 0,
        "tle_line1": "1 38496U 99025ESF 25336.82701182  .00002198  00000+0  12363-2 0  9999",
        "tle_line2": "2 38496  98.7623 346.8127 0077302  35.2540 325.3710 14.09951283808814"
      },
      "geometry": {
        "type": "Point",
        "coordinates": [
          -12.264829484414525,
          15.17476147286587
        ]
      }
    },
    {
      "type": "Feature",
      "properties": {
        "norad_id": 38498,
        "name": "FENGYUN 1C DEB",
        "group": "fengyun-1c-debris",
        "lat": -39.657305195978516,
        "lon": 9.357586928090102,
        "alt_km": 1524.1753230062732,
        "timestamp": "2025-12-06T05:40:09.534253+00:00",
        "meta_object_name": "FENGYUN 1C DEB",
        "meta_object_id": "1999-025ESH",
        "meta_epoch": "2025-12-02T07:26:08.627712",
        "meta_mean_motion": 12.96587855,
        "meta_eccentricity": 0.05567868,
        "meta_inclination": 99.6992,
        "meta_ra_of_asc_node": 357.7083,
        "meta_arg_of_pericenter": 95.9018,
        "meta_mean_anomaly": 270.5803,
        "meta_ephemeris_type": 0,
        "meta_classification_type": "U",
        "meta_norad_cat_id": 38498,
        "meta_element_set_no": 999,
        "meta_rev_at_epoch": 53608,
        "meta_bstar": 0.0021056117,
        "meta_mean_motion_dot": 1.199e-05,
        "meta_mean_motion_ddot": 0,
        "tle_line1": "1 38498U 99025ESH 25336.30982208  .00001199  00000+0  21056-2 0  9993",
        "tle_line2": "2 38498  99.6992 357.7083 0556786  95.9018 270.5803 12.96587855536083"
      },
      "geometry": {
        "type": "Point",
        "coordinates": [
          9.357586928090102,
          -39.657305195978516
        ]
      }
    },
    {
      "type": "Feature",
      "properties": {
        "norad_id": 38510,
        "name": "FENGYUN 1C DEB",
        "group": "fengyun-1c-debris",
        "lat": -80.04045103335974,
        "lon": 110.01683856755234,
        "alt_km": 862.735323181917,
        "timestamp": "2025-12-06T05:40:09.534263+00:00",
        "meta_object_name": "FENGYUN 1C DEB",
        "meta_object_id": "1999-025ESV",
        "meta_epoch": "2025-11-26T06:32:42.236448",
        "meta_mean_motion": 14.13269737,
        "meta_eccentricity": 0.00981735,
        "meta_inclination": 98.6025,
        "meta_ra_of_asc_node": 339.985,
        "meta_arg_of_pericenter": 196.9618,
        "meta_mean_anomaly": 162.8266,
        "meta_ephemeris_type": 0,
        "meta_classification_type": "U",
        "meta_norad_cat_id": 38510,
        "meta_element_set_no": 999,
        "meta_rev_at_epoch": 88437,
        "meta_bstar": 0.0006714866,
        "meta_mean_motion_dot": 1.276e-05,
        "meta_mean_motion_ddot": 0,
        "tle_line1": "1 38510U 99025ESV 25330.27271107  .00001276  00000+0  67149-3 0  9997",
        "tle_line2": "2 38510  98.6025 339.9850 0098173 196.9618 162.8266 14.13269737884378"
      },
      "geometry": {
        "type": "Point",
        "coordinates": [
          110.01683856755234,
          -80.04045103335974
        ]
      }
    },
    {
      "type": "Feature",
      "properties": {
        "norad_id": 38512,
        "name": "FENGYUN 1C DEB",
        "group": "fengyun-1c-debris",
        "lat": 33.10178642300659,
        "lon": 48.35181669589458,
        "alt_km": 830.1703152620494,
        "timestamp": "2025-12-06T05:40:09.534273+00:00",
        "meta_object_name": "FENGYUN 1C DEB",
        "meta_object_id": "1999-025ESX",
        "meta_epoch": "2025-11-24T15:04:33.900960",
        "meta_mean_motion": 13.73922037,
        "meta_eccentricity": 0.02258852,
        "meta_inclination": 98.3776,
        "meta_ra_of_asc_node": 212.6517,
        "meta_arg_of_pericenter": 154.1881,
        "meta_mean_anomaly": 207.075,
        "meta_ephemeris_type": 0,
        "meta_classification_type": "U",
        "meta_norad_cat_id": 38512,
        "meta_element_set_no": 999,
        "meta_rev_at_epoch": 59321,
        "meta_bstar": 0.0011065478,
        "meta_mean_motion_dot": 1.212e-05,
        "meta_mean_motion_ddot": 0,
        "tle_line1": "1 38512U 99025ESX 25328.62817015  .00001212  00000+0  11065-2 0  9994",
        "tle_line2": "2 38512  98.3776 212.6517 0225885 154.1881 207.0750 13.73922037593211"
      },
      "geometry": {
        "type": "Point",
        "coordinates": [
          48.35181669589458,
          33.10178642300659
        ]
      }
    },
    {
      "type": "Feature",
      "properties": {
        "norad_id": 38514,
        "name": "FENGYUN 1C DEB",
        "group": "fengyun-1c-debris",
        "lat": -27.470550355330282,
        "lon": 14.653564546079366,
        "alt_km": 746.6257647499824,
        "timestamp": "2025-12-06T05:40:09.534283+00:00",
        "meta_object_name": "FENGYUN 1C DEB",
        "meta_object_id": "1999-025ESZ",
        "meta_epoch": "2025-12-02T08:28:32.073600",
        "meta_mean_motion": 14.1520314,
        "meta_eccentricity": 0.02727201,
        "meta_inclination": 98.0552,
        "meta_ra_of_asc_node": 6.9176,
        "meta_arg_of_pericenter": 44.3542,
        "meta_mean_anomaly": 317.9133,
        "meta_ephemeris_type": 0,
        "meta_classification_type": "U",
        "meta_norad_cat_id": 38514,
        "meta_element_set_no": 999,
        "meta_rev_at_epoch": 87849,
        "meta_bstar": 0.0058072716,
        "meta_mean_motion_dot": 0.00016169,
        "meta_mean_motion_ddot": 0,
        "tle_line1": "1 38514U 99025ESZ 25336.35314900  .00016169  00000+0  58073-2 0  9997",
        "tle_line2": "2 38514  98.0552   6.9176 0272720  44.3542 317.9133 14.15203140878497"
      },
      "geometry": {
        "type": "Point",
        "coordinates": [
          14.653564546079366,
          -27.470550355330282
        ]
      }
    }
  ]
}